CSS (TIANHE)            
1 48274U 21035A   23265.43379096  .00021440  00000+0  23484-3 0  9999
2 48274  41.4738 284.2441 0007949  81.1917 278.9822 15.62720380137031
